{"type": "FeatureCollection", "features": [ {"type": "Feature", "properties": {"norad_id": 39155, "name": "COSMOS 2485 (747)", "group": "glo-ops", "lat": -55.13749228753059, "lon": 38.30071822603644, "alt_km": 19109.09986124972, "timestamp": "2025-12-23T07:45:09.665517+00:00", "meta": {"OBJECT_NAME": "COSMOS 2485 (747)", "OBJECT_ID": "2013-019A", "EPOCH": "2025-12-22T11:14:56.157792", "MEAN_MOTION": 2.13103251, "ECCENTRICITY": 0.00249447, "INCLINATION": 65.3184, "RA_OF_ASC_NODE": 79.5401, "ARG_OF_PERICENTER": 230.2875, "MEAN_ANOMALY": 129.5355, "EPHEMERIS_TYPE": 0, "CLASSIFICATION_TYPE": "U", "NORAD_CAT_ID": 39155, "ELEMENT_SET_NO": 999, "REV_AT_EPOCH": 9851, "BSTAR": 0, "MEAN_MOTION_DOT": -2e-08, "MEAN_MOTION_DDOT": 0}, "tle": {"line1": "1 39155U 13019A   25356.46870553 -.00000002  00000+0  00000+0 0  9997", "line2": "2 39155  65.3184  79.5401 0024944 230.2875 129.5355  2.13103251 98519"}}, "geometry": {"type": "Point", "coordinates": [38.30071822603644, -55.13749228753059]}}, {"type": "Feature", "properties": {"norad_id": 39620, "name": "COSMOS 2492 (754)", "group": "glo-ops", "lat": -29.598954655650033, "lon": -55.177621608841484, "alt_km": 19098.494303958792, "timestamp": "2025-12-23T07:45:09.665528+00:00", "meta": {"OBJECT_NAME": "COSMOS 2492 (754)", "OBJECT_ID": "2014-012A", "EPOCH": "2025-12-21T22:59:34.433088", "MEAN_MOTION": 2.13103396, "ECCENTRICITY": 0.00142426, "INCLINATION": 65.4026, "RA_OF_ASC_NODE": 319.9579, "ARG_OF_PERICENTER": 313.3292, "MEAN_ANOMALY": 46.5466, "EPHEMERIS_TYPE": 0, "CLASSIFICATION_TYPE": "U", "NORAD_CAT_ID": 39620, "ELEMENT_SET_NO": 999, "REV_AT_EPOCH": 9146, "BSTAR": 0, "MEAN_MOTION_DOT": -4.2e-07, "MEAN_MOTION_DDOT": 0}, "tle": {"line1": "1 39620U 14012A   25355.95803742 -.00000042  00000+0  00000+0 0  9991", "line2": "2 39620  65.4026 319.9579 0014242 313.3292  46.5466  2.13103396 91463"}}, "geometry": {"type": "Point", "coordinates": [-55.177621608841484, -29.598954655650033]}}, {"type": "Feature", "properties": {"norad_id": 40001, "name": "COSMOS 2500 (755)", "group": "glo-ops", "lat": -13.729581065408293, "lon": 146.09685512564712, "alt_km": 19113.898284941806, "timestamp": "2025-12-23T07:45:09.665540+00:00", "meta": {"OBJECT_NAME": "COSMOS 2500 (755)", "OBJECT_ID": "2014-032A", "EPOCH": "2025-12-21T04:35:55.026240", "MEAN_MOTION": 2.13106227, "ECCENTRICITY": 0.00077299, "INCLINATION": 65.3386, "RA_OF_ASC_NODE": 319.7453, "ARG_OF_PERICENTER": 219.3736, "MEAN_ANOMALY": 140.5635, "EPHEMERIS_TYPE": 0, "CLASSIFICATION_TYPE": "U", "NORAD_CAT_ID": 40001, "ELEMENT_SET_NO": 999, "REV_AT_EPOCH": 8966, "BSTAR": 0, "MEAN_MOTION_DOT": -4.7e-07, "MEAN_MOTION_DDOT": 0}, "tle": {"line1": "1 40001U 14032A   25355.19160910 -.00000047  00000+0  00000+0 0  9992", "line2": "2 40001  65.3386 319.7453 0007729 219.3736 140.5635  2.13106227 89663"}}, "geometry": {"type": "Point", "coordinates": [146.09685512564712, -13.729581065408293]}}, {"type": "Feature", "properties": {"norad_id": 40315, "name": "COSMOS 2501 (702K)", "group": "glo-ops", "lat": -3.7356132018028934, "lon": -165.39535101261933, "alt_km": 19176.063197837262, "timestamp": "2025-12-23T07:45:09.665551+00:00", "meta": {"OBJECT_NAME": "COSMOS 2501 (702K)", "OBJECT_ID": "2014-075A", "EPOCH": "2025-12-19T02:31:27.452640", "MEAN_MOTION": 2.13101513, "ECCENTRICITY": 0.0020099, "INCLINATION": 63.6146, "RA_OF_ASC_NODE": 196.6046, "ARG_OF_PERICENTER": 204.1838, "MEAN_ANOMALY": 155.7988, "EPHEMERIS_TYPE": 0, "CLASSIFICATION_TYPE": "U", "NORAD_CAT_ID": 40315, "ELEMENT_SET_NO": 999, "REV_AT_EPOCH": 8601, "BSTAR": 0, "MEAN_MOTION_DOT": 1.06e-06, "MEAN_MOTION_DDOT": 0}, "tle": {"line1": "1 40315U 14075A   25353.10517885  .00000106  00000+0  00000+0 0  9998", "line2": "2 40315  63.6146 196.6046 0020099 204.1838 155.7988  2.13101513 86014"}}, "geometry": {"type": "Point", "coordinates": [-165.39535101261933, -3.7356132018028934]}}, {"type": "Feature", "properties": {"norad_id": 41330, "name": "COSMOS 2514 (751)", "group": "glo-ops", "lat": 7.2900516496238135, "lon": -37.57542319720813, "alt_km": 19154.641258993768, "timestamp": "2025-12-23T07:45:09.665562+00:00", "meta": {"OBJECT_NAME": "COSMOS 2514 (751)", "OBJECT_ID": "2016-008A", "EPOCH": "2025-12-22T20:14:18.279168", "MEAN_MOTION": 2.13102647, "ECCENTRICITY": 0.00116826, "INCLINATION": 65.1279, "RA_OF_ASC_NODE": 319.0581, "ARG_OF_PERICENTER": 220.1101, "MEAN_ANOMALY": 139.8009, "EPHEMERIS_TYPE": 0, "CLASSIFICATION_TYPE": "U", "NORAD_CAT_ID": 41330, "ELEMENT_SET_NO": 999, "REV_AT_EPOCH": 7686, "BSTAR": 0, "MEAN_MOTION_DOT": -3.8e-07, "MEAN_MOTION_DDOT": 0}, "tle": {"line1": "1 41330U 16008A   25356.84326712 -.00000038  00000+0  00000+0 0  9990", "line2": "2 41330  65.1279 319.0581 0011682 220.1101 139.8009  2.13102647 76868"}}, "geometry": {"type": "Point", "coordinates": [-37.57542319720813, 7.2900516496238135]}}, {"type": "Feature", "properties": {"norad_id": 42939, "name": "COSMOS 2522 (752)", "group": "glo-ops", "lat": 41.91909995886373, "lon": -8.036452703062501, "alt_km": 19125.50834420432, "timestamp": "2025-12-23T07:45:09.665572+00:00", "meta": {"OBJECT_NAME": "COSMOS 2522 (752)", "OBJECT_ID": "2017-055A", "EPOCH": "2025-12-22T05:05:46.710816", "MEAN_MOTION": 2.13102066, "ECCENTRICITY": 0.00062992, "INCLINATION": 64.0765, "RA_OF_ASC_NODE": 197.9063, "ARG_OF_PERICENTER": 223.6863, "MEAN_ANOMALY": 136.3303, "EPHEMERIS_TYPE": 0, "CLASSIFICATION_TYPE": "U", "NORAD_CAT_ID": 42939, "ELEMENT_SET_NO": 999, "REV_AT_EPOCH": 6420, "BSTAR": 0, "MEAN_MOTION_DOT": 9.5e-07, "MEAN_MOTION_DDOT": 0}, "tle": {"line1": "1 42939U 17055A   25356.21234619  .00000095  00000+0  00000+0 0  9996", "line2": "2 42939  64.0765 197.9063 0006299 223.6863 136.3303  2.13102066 64200"}}, "geometry": {"type": "Point", "coordinates": [-8.036452703062501, 41.91909995886373]}}, {"type": "Feature", "properties": {"norad_id": 43508, "name": "COSMOS 2527 (756)", "group": "glo-ops", "lat": 16.340268887061427, "lon": -107.88701191291383, "alt_km": 19118.66317307255, "timestamp": "2025-12-23T07:45:09.665584+00:00", "meta": {"OBJECT_NAME": "COSMOS 2527 (756)", "OBJECT_ID": "2018-053A", "EPOCH": "2025-12-22T15:25:09.190272", "MEAN_MOTION": 2.13102397, "ECCENTRICITY": 0.00089861, "INCLINATION": 65.4774, "RA_OF_ASC_NODE": 79.8006, "ARG_OF_PERICENTER": 227.3266, "MEAN_ANOMALY": 132.6412, "EPHEMERIS_TYPE": 0, "CLASSIFICATION_TYPE": "U", "NORAD_CAT_ID": 43508, "ELEMENT_SET_NO": 999, "REV_AT_EPOCH": 5851, "BSTAR": 0, "MEAN_MOTION_DOT": 0, "MEAN_MOTION_DDOT": 0}, "tle": {"line1": "1 43508U 18053A   25356.64246748  .00000000  00000+0  00000+0 0  9997", "line2": "2 43508  65.4774  79.8006 0008986 227.3266 132.6412  2.13102397 58510"}}, "geometry": {"type": "Point", "coordinates": [-107.88701191291383, 16.340268887061427]}}, {"type": "Feature", "properties": {"norad_id": 43687, "name": "COSMOS 2529 (757)", "group": "glo-ops", "lat": 64.13928735126066, "lon": -77.53967088277628, "alt_km": 19140.124501339804, "timestamp": "2025-12-23T07:45:09.665601+00:00", "meta": {"OBJECT_NAME": "COSMOS 2529 (757)", "OBJECT_ID": "2018-086A", "EPOCH": "2025-12-21T19:13:53.194368", "MEAN_MOTION": 2.13102139, "ECCENTRICITY": 0.00069117, "INCLINATION": 64.2926, "RA_OF_ASC_NODE": 198.5821, "ARG_OF_PERICENTER": 253.6836, "MEAN_ANOMALY": 106.3102, "EPHEMERIS_TYPE": 0, "CLASSIFICATION_TYPE": "U", "NORAD_CAT_ID": 43687, "ELEMENT_SET_NO": 999, "REV_AT_EPOCH": 5550, "BSTAR": 0, "MEAN_MOTION_DOT": 9.6e-07, "MEAN_MOTION_DDOT": 0}, "tle": {"line1": "1 43687U 18086A   25355.80131012  .00000096  00000+0  00000+0 0  9990", "line2": "2 43687  64.2926 198.5821 0006911 253.6836 106.3102  2.13102139 55503"}}, "geometry": {"type": "Point", "coordinates": [-77.53967088277628, 64.13928735126066]}}, {"type": "Feature", "properties": {"norad_id": 44299, "name": "COSMOS 2534 (758)", "group": "glo-ops", "lat": -36.873113931806486, "lon": 39.6635589477266, "alt_km": 19124.243664005215, "timestamp": "2025-12-23T07:45:09.665612+00:00", "meta": {"OBJECT_NAME": "COSMOS 2534 (758)", "OBJECT_ID": "2019-030A", "EPOCH": "2025-12-21T10:55:51.060576", "MEAN_MOTION": 2.13102432, "ECCENTRICITY": 0.00087289, "INCLINATION": 64.366, "RA_OF_ASC_NODE": 198.5992, "ARG_OF_PERICENTER": 284.1192, "MEAN_ANOMALY": 304.9695, "EPHEMERIS_TYPE": 0, "CLASSIFICATION_TYPE": "U", "NORAD_CAT_ID": 44299, "ELEMENT_SET_NO": 999, "REV_AT_EPOCH": 5113, "BSTAR": 0, "MEAN_MOTION_DOT": 9.7e-07, "MEAN_MOTION_DDOT": 0}, "tle": {"line1": "1 44299U 19030A   25355.45545209  .00000097  00000+0  00000+0 0  9999", "line2": "2 44299  64.3660 198.5992 0008728 284.1192 304.9695  2.13102432 51134"}}, "geometry": {"type": "Point", "coordinates": [39.6635589477266, -36.873113931806486]}}, {"type": "Feature", "properties": {"norad_id": 44850, "name": "COSMOS 2544 (759)", "group": "glo-ops", "lat": -22.088889656367208, "lon": -89.71712725789071, "alt_km": 19107.67720278028, "timestamp": "2025-12-23T07:45:09.665623+00:00", "meta": {"OBJECT_NAME": "COSMOS 2544 (759)", "OBJECT_ID": "2019-088A", "EPOCH": "2025-12-22T02:49:35.422176", "MEAN_MOTION": 2.13102165, "ECCENTRICITY": 0.00143119, "INCLINATION": 65.4645, "RA_OF_ASC_NODE": 79.6449, "ARG_OF_PERICENTER": 250.3028, "MEAN_ANOMALY": 109.5843, "EPHEMERIS_TYPE": 0, "CLASSIFICATION_TYPE": "U", "NORAD_CAT_ID": 44850, "ELEMENT_SET_NO": 999, "REV_AT_EPOCH": 4694, "BSTAR": 0, "MEAN_MOTION_DOT": -3e-08, "MEAN_MOTION_DDOT": 0}, "tle": {"line1": "1 44850U 19088A   25356.11777109 -.00000003  00000+0  00000+0 0  9993", "line2": "2 44850  65.4645  79.6449 0014311 250.3028 109.5843  2.13102165 46946"}}, "geometry": {"type": "Point", "coordinates": [-89.71712725789071, -22.088889656367208]}}]}